GLOBALSTAR M023         
1 25621U 99004A   25143.44161889 -.00000069  00000+0  19638-3 0  9999
2 25621  52.0083 128.7915 0009586  69.4737  98.0283 12.62504369212602
GLOBALSTAR M040         
1 25622U 99004B   25143.40388222 -.00000052  00000+0  28955-3 0  9992
2 25622  51.9890 133.0243 0000981 345.0650 166.7721 12.62010820212128
GLOBALSTAR M036         
1 25623U 99004C   25143.52479865 -.00000025  00000+0  84640-3 0  9993
2 25623  51.9978 305.3274 0010934   9.6687  33.0326 11.86600251176052
GLOBALSTAR M038         
1 25624U 99004D   25143.46639439 -.00000059  00000+0  29597-3 0  9999
2 25624  51.9943 142.7644 0001946 359.3223 167.3070 12.32527408199329
GLOBALSTAR M022         
1 25649U 99012A   25143.62478237 -.00000085  00000+0  21058-4 0  9994
2 25649  52.0064 357.6733 0003185 116.3874 255.1547 12.02500110173424
GLOBALSTAR M041         
1 25650U 99012B   25143.66134840 -.00000037  00000+0  61823-3 0  9999
2 25650  52.0013 238.2815 0001506 251.3090 108.7583 11.96678616175581
GLOBALSTAR M046         
1 25651U 99012C   25143.24502929 -.00000146  00000+0 -63166-3 0  9995
2 25651  52.0066 309.7505 0002173 181.3741 350.4843 12.09410103180644
GLOBALSTAR M037         
1 25652U 99012D   25143.81538229 -.00000101  00000+0  17273-4 0  9990
2 25652  52.0009 258.2836 0002675 133.8758  34.8177 12.62444720208256
